{
  "type": "FeatureCollection",
  "features": [
    {
      "type": "Feature",
      "properties": {
        "norad_id": 66438,
        "name": "STARLINK-34681",
        "group": "last-30-days",
        "lat": 1.5512558351471322,
        "lon": -95.85948758758656,
        "alt_km": 415.03009137588833,
        "timestamp": "2025-12-06T03:35:00.472649+00:00",
        "meta_object_name": "STARLINK-34681",
        "meta_object_id": "2025-259S",
        "meta_epoch": "2025-12-05T00:00:02.999808",
        "meta_mean_motion": 15.50607171,
        "meta_eccentricity": 0.00015784,
        "meta_inclination": 43.0007,
        "meta_ra_of_asc_node": 92.5293,
        "meta_arg_of_pericenter": 264.8555,
        "meta_mean_anomaly": 329.932,
        "meta_ephemeris_type": 0,
        "meta_classification_type": "U",
        "meta_norad_cat_id": 66438,
        "meta_element_set_no": 999,
        "meta_rev_at_epoch": 492,
        "meta_bstar": -0.0010505396,
        "meta_mean_motion_dot": -0.00061551,
        "meta_mean_motion_ddot": 0,
        "tle_line1": "1 66438U 25259S   25339.00003472 -.00061551  00000+0 -10505-2 0  9990",
        "tle_line2": "2 66438  43.0007  92.5293 0001578 264.8555 329.9320 15.50607171  4925"
      },
      "geometry": {
        "type": "Point",
        "coordinates": [
          -95.85948758758656,
          1.5512558351471322
        ]
      }
    },
    {
      "type": "Feature",
      "properties": {
        "norad_id": 66439,
        "name": "STARLINK-35327",
        "group": "last-30-days",
        "lat": 5.47375484489537,
        "lon": -100.08018449194364,
        "alt_km": 414.6854792290851,
        "timestamp": "2025-12-06T03:35:00.472659+00:00",
        "meta_object_name": "STARLINK-35327",
        "meta_object_id": "2025-259T",
        "meta_epoch": "2025-12-05T00:00:02.999808",
        "meta_mean_motion": 15.50608503,
        "meta_eccentricity": 0.00016148,
        "meta_inclination": 43.0006,
        "meta_ra_of_asc_node": 92.5456,
        "meta_arg_of_pericenter": 267.7138,
        "meta_mean_anomaly": 321.3225,
        "meta_ephemeris_type": 0,
        "meta_classification_type": "U",
        "meta_norad_cat_id": 66439,
        "meta_element_set_no": 999,
        "meta_rev_at_epoch": 503,
        "meta_bstar": -0.0011237973,
        "meta_mean_motion_dot": -0.00065788,
        "meta_mean_motion_ddot": 0,
        "tle_line1": "1 66439U 25259T   25339.00003472 -.00065788  00000+0 -11238-2 0  9991",
        "tle_line2": "2 66439  43.0006  92.5456 0001614 267.7138 321.3225 15.50608503  5039"
      },
      "geometry": {
        "type": "Point",
        "coordinates": [
          -100.08018449194364,
          5.47375484489537
        ]
      }
    },
    {
      "type": "Feature",
      "properties": {
        "norad_id": 66440,
        "name": "STARLINK-35405",
        "group": "last-30-days",
        "lat": 0.24111284126307836,
        "lon": -94.45711675971906,
        "alt_km": 415.2557151441406,
        "timestamp": "2025-12-06T03:35:00.472669+00:00",
        "meta_object_name": "STARLINK-35405",
        "meta_object_id": "2025-259U",
        "meta_epoch": "2025-12-05T00:00:02.999808",
        "meta_mean_motion": 15.50594995,
        "meta_eccentricity": 0.00014967,
        "meta_inclination": 43.0006,
        "meta_ra_of_asc_node": 92.5251,
        "meta_arg_of_pericenter": 271.4204,
        "meta_mean_anomaly": 325.2944,
        "meta_ephemeris_type": 0,
        "meta_classification_type": "U",
        "meta_norad_cat_id": 66440,
        "meta_element_set_no": 999,
        "meta_rev_at_epoch": 503,
        "meta_bstar": -0.00089389837,
        "meta_mean_motion_dot": -0.00052462,
        "meta_mean_motion_ddot": 0,
        "tle_line1": "1 66440U 25259U   25339.00003472 -.00052462  00000+0 -89390-3 0  9993",
        "tle_line2": "2 66440  43.0006  92.5251 0001496 271.4204 325.2944 15.50594995  5038"
      },
      "geometry": {
        "type": "Point",
        "coordinates": [
          -94.45711675971906,
          0.24111284126307836
        ]
      }
    },
    {
      "type": "Feature",
      "properties": {
        "norad_id": 66441,
        "name": "STARLINK-35426",
        "group": "last-30-days",
        "lat": -1.0643492622981208,
        "lon": -93.06099156283697,
        "alt_km": 415.47548658964206,
        "timestamp": "2025-12-06T03:35:00.472679+00:00",
        "meta_object_name": "STARLINK-35426",
        "meta_object_id": "2025-259V",
        "meta_epoch": "2025-12-05T00:00:02.999808",
        "meta_mean_motion": 15.50594833,
        "meta_eccentricity": 0.00015885,
        "meta_inclination": 43.0007,
        "meta_ra_of_asc_node": 92.5201,
        "meta_arg_of_pericenter": 275.4914,
        "meta_mean_anomaly": 323.1388,
        "meta_ephemeris_type": 0,
        "meta_classification_type": "U",
        "meta_norad_cat_id": 66441,
        "meta_element_set_no": 999,
        "meta_rev_at_epoch": 503,
        "meta_bstar": -0.00089023433,
        "meta_mean_motion_dot": -0.0005225,
        "meta_mean_motion_ddot": 0,
        "tle_line1": "1 66441U 25259V   25339.00003472 -.00052250  00000+0 -89023-3 0  9992",
        "tle_line2": "2 66441  43.0007  92.5201 0001588 275.4914 323.1388 15.50594833  5039"
      },
      "geometry": {
        "type": "Point",
        "coordinates": [
          -93.06099156283697,
          -1.0643492622981208
        ]
      }
    },
    {
      "type": "Feature",
      "properties": {
        "norad_id": 66442,
        "name": "STARLINK-34724",
        "group": "last-30-days",
        "lat": -2.326583156859865,
        "lon": -91.70877972579494,
        "alt_km": 415.61646416819895,
        "timestamp": "2025-12-06T03:35:00.472689+00:00",
        "meta_object_name": "STARLINK-34724",
        "meta_object_id": "2025-259W",
        "meta_epoch": "2025-12-05T00:00:02.999808",
        "meta_mean_motion": 15.50621701,
        "meta_eccentricity": 0.00014465,
        "meta_inclination": 43.0006,
        "meta_ra_of_asc_node": 92.5157,
        "meta_arg_of_pericenter": 268.1024,
        "meta_mean_anomaly": 332.4356,
        "meta_ephemeris_type": 0,
        "meta_classification_type": "U",
        "meta_norad_cat_id": 66442,
        "meta_element_set_no": 999,
        "meta_rev_at_epoch": 503,
        "meta_bstar": -0.0014917954,
        "meta_mean_motion_dot": -0.00087024,
        "meta_mean_motion_ddot": 0,
        "tle_line1": "1 66442U 25259W   25339.00003472 -.00087024  00000+0 -14918-2 0  9990",
        "tle_line2": "2 66442  43.0006  92.5157 0001446 268.1024 332.4356 15.50621701  5036"
      },
      "geometry": {
        "type": "Point",
        "coordinates": [
          -91.70877972579494,
          -2.326583156859865
        ]
      }
    },
    {
      "type": "Feature",
      "properties": {
        "norad_id": 66443,
        "name": "STARLINK-35219",
        "group": "last-30-days",
        "lat": -3.6374741894266998,
        "lon": -90.30083890720547,
        "alt_km": 415.5800833173971,
        "timestamp": "2025-12-06T03:35:00.472702+00:00",
        "meta_object_name": "STARLINK-35219",
        "meta_object_id": "2025-259X",
        "meta_epoch": "2025-12-05T00:00:02.999808",
        "meta_mean_motion": 15.50617334,
        "meta_eccentricity": 0.00014133,
        "meta_inclination": 43.0007,
        "meta_ra_of_asc_node": 92.5108,
        "meta_arg_of_pericenter": 259.8778,
        "meta_mean_anomaly": 342.5786,
        "meta_ephemeris_type": 0,
        "meta_classification_type": "U",
        "meta_norad_cat_id": 66443,
        "meta_element_set_no": 999,
        "meta_rev_at_epoch": 492,
        "meta_bstar": -0.0014018562,
        "meta_mean_motion_dot": -0.00081839,
        "meta_mean_motion_ddot": 0,
        "tle_line1": "1 66443U 25259X   25339.00003472 -.00081839  00000+0 -14019-2 0  9991",
        "tle_line2": "2 66443  43.0007  92.5108 0001413 259.8778 342.5786 15.50617334  4924"
      },
      "geometry": {
        "type": "Point",
        "coordinates": [
          -90.30083890720547,
          -3.6374741894266998
        ]
      }
    },
    {
      "type": "Feature",
      "properties": {
        "norad_id": 66444,
        "name": "STARLINK-35360",
        "group": "last-30-days",
        "lat": -7.554699092316977,
        "lon": -86.04587717114521,
        "alt_km": 415.877549131108,
        "timestamp": "2025-12-06T03:35:00.472712+00:00",
        "meta_object_name": "STARLINK-35360",
        "meta_object_id": "2025-259Y",
        "meta_epoch": "2025-12-05T00:00:02.999808",
        "meta_mean_motion": 15.50610451,
        "meta_eccentricity": 0.00015243,
        "meta_inclination": 43.0006,
        "meta_ra_of_asc_node": 92.4954,
        "meta_arg_of_pericenter": 260.2703,
        "meta_mean_anomaly": 347.9379,
        "meta_ephemeris_type": 0,
        "meta_classification_type": "U",
        "meta_norad_cat_id": 66444,
        "meta_element_set_no": 999,
        "meta_rev_at_epoch": 503,
        "meta_bstar": -0.0011957104,
        "meta_mean_motion_dot": -0.00069943,
        "meta_mean_motion_ddot": 0,
        "tle_line1": "1 66444U 25259Y   25339.00003472 -.00069943  00000+0 -11957-2 0  9992",
        "tle_line2": "2 66444  43.0006  92.4954 0001524 260.2703 347.9379 15.50610451  5032"
      },
      "geometry": {
        "type": "Point",
        "coordinates": [
          -86.04587717114521,
          -7.554699092316977
        ]
      }
    }
  ]
}